0 EXPRESS MD2
1 38745U 12044B   13283.48742055  .00021913  23118-5  70241-3 0  2086
2 38745 049.9092 013.7914 2541421 082.0238 305.8473 10.32204721 43985
0 EXPRESS MD2
1 38745U 12044B   13284.16528042  .00018254  23024-5  59001-3 0  2092
2 38745 049.9093 012.2483 2541317 083.3087 304.7564 10.32222392 44053
0 EXPRESS MD2
1 38745U 12044B   13285.42411665  .00016979  23014-5  55143-3 0  2100
2 38745 049.9096 009.3821 2541030 085.6956 302.6966 10.32265945 44189
0 EXPRESS MD2
1 38745U 12044B   13286.48923394  .00017672  23047-5  57323-3 0  2114
2 38745 049.9098 006.9571 2540807 087.7153 300.9202 10.32301883 44297
0 EXPRESS MD2
1 38745U 12044B   13287.74795523  .00018722  23085-5  60599-3 0  2124
2 38745 049.9099 004.0918 2540571 090.0992 298.7828 10.32342190 44427
0 EXPRESS MD2
1 38745U 12044B   13288.42569828  .00021914  23185-5  70442-3 0  2134
2 38745 049.9099 002.5488 2540405 091.3827 297.6128 10.32376736 44490
0 EXPRESS MD2
1 38745U 12044B   13289.58748619  .00023747  23245-5  76081-3 0  2148
2 38745 049.9098 359.9038 2540184 093.5824 295.5768 10.32423998 44618
0 EXPRESS MD2
1 38745U 12044B   13290.45878627  .00022841  23207-5  73213-3 0  2156
2 38745 049.9095 357.9198 2540080 095.2338 294.0223 10.32457110 44707
0 EXPRESS MD2
1 38745U 12044B   13291.42685871  .00019178  23080-5  61846-3 0  2169
2 38745 049.9092 355.7152 2539996 097.0676 292.2690 10.32489747 44809
0 EXPRESS MD2
1 38745U 12044B   13292.49169286  .00019007  23056-5  61219-3 0  2173
2 38745 049.9088 353.2901 2539898 099.0857 290.3054 10.32529220 44919
0 EXPRESS MD2
1 38745U 12044B   13293.65327165  .00020697  23079-5  66305-3 0  2188
2 38745 049.9085 350.6440 2539790 101.2891 288.1198 10.32570356 45034
0 EXPRESS MD2
1 38745U 12044B   13295.10516668  .00018840  22980-5  60497-3 0  2192
2 38745 049.9082 347.3361 2539668 104.0455 285.3230 10.32616284 45180
0 EXPRESS MD2
1 38745U 12044B   13296.16983158  .00021934  23037-5  69923-3 0  2208
2 38745 049.9081 344.9103 2539482 106.0662 283.2263 10.32662012 45297
